CTC1_L_00518001-01
1 10000U 24057QH  26075.70037037  .00000000  00000+0  00000-0 0  9995
2 10000  97.6000   0.0000 0000000   0.0000   0.0000 14.98995063    10
CTC1_L_00518002-01
1 10001U 23393SF  26075.70037037  .00000000  00000+0  00000-0 0  9998
2 10001  97.6000  12.0000 0000000   0.0000  48.0000 14.98995063    16
CTC1_L_00518003-01
1 10002U 23604WD  26075.70037037  .00000000  00000+0  00000-0 0  9994
2 10002  97.6000  24.0000 0000000   0.0000  96.0000 14.98995063    13
CTC1_L_00518004-01
1 10003U 23152NZ  26075.70037037  .00000000  00000+0  00000-0 0  9993
2 10003  97.6000  36.0000 0000000   0.0000 144.0000 14.98995063    11
CTC1_L_00518005-01
1 10004U 25445LY  26075.70037037  .00000000  00000+0  00000-0 0  9991
2 10004  97.6000  48.0000 0000000   0.0000 192.0000 14.98995063    18
CTC1_L_00518006-01
1 10005U 23902SZ  26075.70037037  .00000000  00000+0  00000-0 0  9998
2 10005  97.6000  60.0000 0000000   0.0000 240.0000 14.98995063    17
CTC1_L_00518007-01
1 10006U 22737CN  26075.70037037  .00000000  00000+0  00000-0 0  9994
2 10006  97.6000  72.0000 0000000   0.0000 288.0000 14.98995063    13
CTC1_L_00518008-01
1 10007U 26602GQ  26075.70037037  .00000000  00000+0  00000-0 0  9990
2 10007  97.6000  84.0000 0000000   0.0000 336.0000 14.98995063    11
CTC1_L_00518009-01
1 10008U 25667ZA  26075.70037037  .00000000  00000+0  00000-0 0  9991
2 10008  97.6000  96.0000 0000000   0.0000  24.0000 14.98995063    19
CTC1_L_00518010-01
1 10009U 22199VP  26075.70037037  .00000000  00000+0  00000-0 0  9999
2 10009  97.6000 108.0000 0000000   0.0000  72.0000 14.98995063    17
CTC1_L_00518011-01
1 10010U 26081WF  26075.70037037  .00000000  00000+0  00000-0 0  9995
2 10010  97.6000 120.0000 0000000   0.0000 120.0000 14.98995063    17
CTC1_L_00518012-01
1 10011U 22616LW  26075.70037037  .00000000  00000+0  00000-0 0  9996
2 10011  97.6000 132.0000 0000000   0.0000 168.0000 14.98995063    13
CTC1_L_00518013-01
1 10012U 24867DL  26075.70037037  .00000000  00000+0  00000-0 0  9997
2 10012  97.6000 144.0000 0000000   0.0000 216.0000 14.98995063    11
CTC1_L_00518014-01
1 10013U 26717EK  26075.70037037  .00000000  00000+0  00000-0 0  9994
2 10013  97.6000 156.0000 0000000   0.0000 264.0000 14.98995063    18
CTC1_L_00518015-01
1 10014U 23288CX  26075.70037037  .00000000  00000+0  00000-0 0  9995
2 10014  97.6000 168.0000 0000000   0.0000 312.0000 14.98995063    16
CTC1_L_00518016-01
1 10015U 23805UD  26075.70037037  .00000000  00000+0  00000-0 0  9991
2 10015  97.6000 180.0000 0000000   0.0000   0.0000 14.98995063    15
CTC1_L_00518017-01
1 10016U 26189VZ  26075.70037037  .00000000  00000+0  00000-0 0  9990
2 10016  97.6000 192.0000 0000000   0.0000  48.0000 14.98995063    11
CTC1_L_00518018-01
1 10017U 24633M   26075.70037037  .00000000  00000+0  00000-0 0  9993
2 10017  97.6000 204.0000 0000000   0.0000  96.0000 14.98995063    19
CTC1_L_00518019-01
1 10018U 23845RT  26075.70037037  .00000000  00000+0  00000-0 0  9998
2 10018  97.6000 216.0000 0000000   0.0000 144.0000 14.98995063    17
CTC1_L_00518020-01
1 10019U 25458HA  26075.70037037  .00000000  00000+0  00000-0 0  9991
2 10019  97.6000 228.0000 0000000   0.0000 192.0000 14.98995063    14
CTC1_L_00518021-01
1 10020U 22727IM  26075.70037037  .00000000  00000+0  00000-0 0  9999
2 10020  97.6000 240.0000 0000000   0.0000 240.0000 14.98995063    14
CTC1_L_00518022-01
1 10021U 25366KH  26075.70037037  .00000000  00000+0  00000-0 0  9992
2 10021  97.6000 252.0000 0000000   0.0000 288.0000 14.98995063    10
CTC1_L_00518023-01
1 10022U 26166MK  26075.70037037  .00000000  00000+0  00000-0 0  9992
2 10022  97.6000 264.0000 0000000   0.0000 336.0000 14.98995063    18
CTC1_L_00518024-01
1 10023U 22870TB  26075.70037037  .00000000  00000+0  00000-0 0  9991
2 10023  97.6000 276.0000 0000000   0.0000  24.0000 14.98995063    16
CTC1_L_00518025-01
1 10024U 22528PF  26075.70037037  .00000000  00000+0  00000-0 0  9992
2 10024  97.6000 288.0000 0000000   0.0000  72.0000 14.98995063    13
CTC1_L_00518026-01
1 10025U 25303CZ  26075.70037037  .00000000  00000+0  00000-0 0  9997
2 10025  97.6000 300.0000 0000000   0.0000 120.0000 14.98995063    13
CTC1_L_00518027-01
1 10026U 24183DT  26075.70037037  .00000000  00000+0  00000-0 0  9993
2 10026  97.6000 312.0000 0000000   0.0000 168.0000 14.98995063    19
CTC1_L_00518028-01
1 10027U 24786OO  26075.70037037  .00000000  00000+0  00000-0 0  9993
2 10027  97.6000 324.0000 0000000   0.0000 216.0000 14.98995063    17
CTC1_L_00518029-01
1 10028U 22365FY  26075.70037037  .00000000  00000+0  00000-0 0  9995
2 10028  97.6000 336.0000 0000000   0.0000 264.0000 14.98995063    14
CTC1_L_00518030-01
1 10029U 22776CI  26075.70037037  .00000000  00000+0  00000-0 0  9992
2 10029  97.6000 348.0000 0000000   0.0000 312.0000 14.98995063    12
